#Pass ID: 20260117_131615_AQUA
#Satellite: AQUA
#Configuration: AQUA
#almurnet v.1.7.20240730
#Start time: 2026-01-17 13:19:25

#Version: 2.2.20231116
#Station: R2.0S-dem200
#Location: 37.641188 lon 55.676863 lat
#TLE: 1 27424U 02022A   26016.59833233  .00000670  00000+0  14410-3 0  9991
#TLE: 2 27424  98.4084 343.0525 0002018  76.3524 343.9424 14.61823666261128

#Time	Az	El	Level	Level2	SNR	BER	BlckErr	Temp	State	Recorded	gain1	gain2
#2026-01-17 13:19:25.249000	device inactive

#Closed at: 2026-01-17 13:19:26
#Recorded file [0 MB]: 